#dP2023  3 30 18  0  0.00000000      96 __u+U ITR00 EXT  IAC
## 2255 410400.00000000   900.00000000 60033 0.7500000000000
+  119   C06C07C08C09C10C11C12C13C14C16C19C20C21C22C23C24C25
+        C26C27C28C29C30C32C33C34C35C36C37C38C39C40C41C42C43
+        C44C45C46E01E02E03E04E05E07E08E09E10E11E12E13E14E15
+        E18E19E21E25E26E27E30E31E33E34E36G01G02G03G04G05G06
+        G07G08G09G10G11G12G13G14G15G16G17G18G19G20G21G22G23
+        G24G25G26G27G28G29G30G31G32J02J03J04R01R02R03R04R05
+        R07R08R09R11R12R13R14R15R16R17R18R19R20R21R22R24R25
++         9  9 11 11 10  8 10 11 10 10 10  9  8  7  9 10 10
++        10 10  9 10  9  8  8  9 10 10  8 10 10 11 10 10 10
++         8  8  9  8 10 10  8  9  8 10  8  8  9  9  7  8  9
++         8 10  8  9  9  9  8  8  8  7  9  9 10  8  8 10  6
++         9  9  8 10  9  9  9  9  9  7  9  9  8 10  9  8  9
++        10  9  8  9 10  9 10  9  8 12 10 11  9  7  8  9  9
++         8  7  9  9  6  8  9  8  9  8  8  9  9  9  8  9 10
%c M  cc GPS ccc cccc cccc cccc cccc ccccc ccccc ccccc ccccc
%c cc cc ccc ccc cccc cccc cccc cccc ccccc ccccc ccccc ccccc
%f  0.0000000  0.000000000  0.00000000000  0.000000000000000
%f  0.0000000  0.000000000  0.00000000000  0.000000000000000
%i    0    0    0    0      0      0      0      0         0
%i    0    0    0    0      0      0      0      0         0
/* IAC                                ULTRA-RAPID PREDICTION
/* S/V CLOCKS ARE ALIGNED TO GNSS TIME                      
/* G:C1WC2W R:C1PC2P E:C1XC5X C:C2IC6I J:C1CC2S             
/* PCV:IGS20_2247 OL/AL:FES2004  NONE     YN ORB:CoN CLK:CoN
*  2023 03 30 21  0  0.00000000
PC06  -4292.869998  25431.685553  33424.156136   -197.119304
PC07 -18760.180893  33196.847454 -18139.215071    -97.812013
PC08  -5639.805974  39949.002761 -11933.840554    512.309983
PC09   5326.725097  29373.951342  30395.363225    822.651162
PC10 -11653.169688  33311.193985 -23139.844153    -21.459392
PC11 -25693.481363 -10845.092889   1255.306179    735.163398
PC12 -13565.440068 -17261.035972  17262.148366    539.848781
PC13  -1122.979978  41635.851415  -5474.896112    241.640142
PC14 -18893.404322  -2169.564634 -20420.343523     59.164926
PC16  -6859.756303  23747.231627  34410.246811    123.773928
PC19  22854.593615  -6584.567551  14607.609205   -898.165369
PC20  13128.679833   9241.364512  22840.597463    652.206591
PC21   5329.714910 -20709.331110 -17892.909488   -908.991304
PC22  19885.580796 -19391.461695  -2522.146214   -559.929685
PC23 -10832.654225  17148.928365  19163.558995   -896.635943
PC24 -12647.216101 -22011.877681  11599.135620   -230.686878
PC25 -16741.892621  -1886.887822  22237.615921     97.210732
PC26  -2747.422109 -27469.890865  -4215.623830    -99.331911
PC27   4549.060773  17428.490695 -21340.318622    118.352232
PC28 -14399.039615  10607.752121 -21419.539256     86.940598
PC29  26576.727244   2542.523665   8125.773068    100.556241
PC30  21784.044533  14308.964878 -10018.706759      0.642985
PC32  -5225.061586  20808.485063  17875.618269   -588.570984
PC33 -22817.856337   6693.636692 -14610.748661   -871.627446
PC34 -22571.846386 -13782.817904   8849.727171    138.136517
PC35  15013.403168 -10606.949276  20996.472945    655.020804
PC36  16742.553085   3077.022040 -22093.002194   -531.451024
PC37   1199.445687  27332.016018   5450.585540   -795.398948
PC38 -10524.669224  35990.500930 -19109.753921     68.489052
PC39 -12585.937361  20618.488671  34595.519383     -2.369529
PC40 -25730.231072  28217.990497 -18144.614236    -18.990328
PC41 -20111.554206  19260.043904   1968.787165   -788.746520
PC42 -12107.336237 -10272.718097 -22900.385772   -760.842175
PC43 -26719.654490  -3131.886376  -7376.407152     14.318738
PC44  -4892.712087 -17326.173012  21297.559473     60.689171
PC45  10503.646934 -17545.161405 -19003.199393    -78.851707
PC46  13304.020292  20767.662876 -13025.120541    -43.546761
PE01 -17209.106677  -1172.742110  24048.425154     -9.762548
PE02  17367.431261    617.495280 -23973.193748     29.450444
PE03  28778.450540    217.192272   6901.436999   -664.364992
PE04 -24612.800798  12016.571258  11238.005938    -89.872145
PE05  16090.347854  12618.843801  21409.463042    -81.444445
PE07   6023.842751 -17449.483224 -23126.415771    -33.873815
PE08  24741.711462 -11874.828585 -11071.594024    -59.546004
PE09  -6241.079906  17333.613076  23178.682602   -887.591483
PE10  -5607.713929  17003.965445 -23578.245336   -522.906382
PE11   3864.329354  23144.407735 -18067.007373   1436.143348
PE12 -13458.299308   8908.490672 -24814.180255   -479.137485
PE13  -3187.129756 -22742.728930  18670.434431    -18.144567
PE14  20145.946289  -8487.509489   8883.434932    183.260184
PE15  13662.695998  -8524.160839  24841.930426    -11.117804
PE18 -23816.302791  14661.734090 -16489.852879   -222.437331
PE19 -28008.336269  -2084.239685  -9331.891090  -2882.554474
PE21  -7804.080860 -19550.820946  20804.041725   -520.546398
PE25   7587.250183  19808.828718 -20643.154873   -602.344959
PE26 -18337.558425 -23216.066182    840.460098     60.870761
PE27   6802.570061 -28292.113591   5457.231147    -13.071211
PE30  17538.999847 -19722.812842 -13432.031498    -53.320288
PE31 -17248.020889  20272.973881  12943.740326   -519.975485
PE33 -22304.315894 -10601.289670 -16302.822851   -447.634574
PE34  22311.574179  10431.168512  16414.074956    -37.652271
PE36  17972.515980  23474.090644  -1633.975347    -34.047231
PG01  19344.793664  10436.250782  14839.155706    197.722121
PG02 -19578.332804  -5339.101782 -16387.044090   -610.334999
PG03  15881.371106   -753.707404  21129.529308   -339.848270
PG04  26354.718409    606.357028   3720.198770      5.134688
PG05  -8622.839460 -15681.151029 -19756.703258   -121.506912
PG06  -1106.987295 -20487.547463  16874.820676    584.658819
PG07  15422.462930  -4125.073866 -20853.035582    212.104008
PG08  20999.610120   7567.745136 -14755.054195   -115.439892
PG09  24478.096178  -7995.637871  -6672.239048   -190.113405
PG10 -11012.496128  23964.954800   -763.410980    -30.745298
PG11 -11663.471650 -23444.188329   4568.123026   -146.616797
PG12 -15239.828353  -2659.425569  21296.540448   -357.937523
PG13 -14137.117973 -13105.376091 -18533.119254    498.464871
PG14  13543.290860 -22484.982260  -3524.588199     10.666222
PG15 -21887.497653  -5641.921144 -14611.496364     26.240815
PG16   4847.703622  18229.242028 -18813.262928   -512.185131
PG17  14702.393755 -13118.236716  18289.262402    708.194025
PG18 -12514.161080   8157.046496 -21961.934813   -202.583523
PG19   4266.728462 -14620.397569  21498.722597    297.084089
PG20  -3285.114964 -23362.002431 -12363.872448    441.842244
PG21  20854.116187  15531.994773   7833.993863    154.318611
PG22   -316.565919  15393.074090  22084.716991    455.155396
PG23 -15927.273436  17351.620993 -12124.426280     13.684365
PG24 -21120.241745 -12498.975319  10313.868349   -132.660852
PG25 -17357.501028   9131.232782  17470.242686    431.840873
PG26  -2801.973909  25036.443767  -7961.510766    241.945831
PG27  10642.209108  13188.501956 -20796.486570     69.564697
PG28   -108.525066  19770.399225  17710.535778     55.565217
PG29 -26195.232861   3198.070954  -3422.826702   -593.324040
PG30   6500.829964 -16095.316035 -19930.849894   -524.657093
PG31   4594.203023  22445.391538  12886.038756   -212.848424
PG32 -11065.890421  14837.591785  19149.526187   -438.213060
PJ02 -31883.453969  25865.477789  14536.657103     -1.354798
PJ03 -25547.278165  16724.921341 -24480.919047      1.571265
PJ04 -26133.319488  33146.695544   3186.335579     94.151337
PR01   7335.174861   8384.753762  22953.692976     25.759213
PR02  20764.791712  -4123.337996  14326.854453    -23.030089
PR03  21370.601057 -13765.665581  -2395.226971     75.146298
PR04  10337.676939 -15347.154995 -17527.941565    181.425911
PR05  -6343.237719  -8759.344750 -23083.620307    110.181611
PR07 -20997.252732  14050.717080   3378.437055     52.817187
PR08  -9938.161184  15462.771435  17736.666370    -70.137499
PR09 -11289.687864  -3916.115521  22542.219653    112.039172
PR11  -2149.779780  24812.949212   5553.663871    -27.281888
PR12   6497.278616  20889.895256 -13082.987723     26.070720
PR13  10837.991150   6119.764330 -22283.552250    -33.455511
PR14   8935.300852 -14597.277571 -18900.310935     24.486340
PR15   1850.094946 -25064.329687  -4340.120004     90.110988
PR16  -6465.548049 -21041.748854  12865.357036     12.980809
PR17  14005.810692  -2972.629913  21108.340377    616.874518
PR18  -1461.488404 -12457.874379  22212.955031     74.097594
PR19 -14855.309482 -16177.969789  12966.057527   -227.234519
PR20 -22161.277452 -10118.467623  -7471.279709    -90.256422
PR21 -12649.104172   3948.151292 -21802.058564   -384.295631
PR22   1772.752121  13258.415119 -21698.505173     77.173251
PR24  22522.774803   8882.499843   8035.542663    158.001030
PR25 -14494.229663   2352.847822 -20857.850756     59.212631
EOF
